0 THOR ABLESTAR DEB
1   268U 61015CN  18289.22686010  .00000099  00000-0  44306-3 0  9990
2   268  67.9342 299.7420 0647694   6.9669  72.5114 12.50209401603401
0 MIDAS 5 (STRONGBACK)
1   271U 62010A   18289.47584610  .00000002  00000-0 -29155-3 0  9990
2   271  86.6732   3.2085 0329435 228.5791 128.6369  9.41307081942498
0 MIDAS 5 (STRONGBACK)
1   271U 62010A   18288.83819357 +.00000002 +00000-0 -29988-3 0  9992
2   271 086.6733 003.3010 0329419 229.3628 127.8196 09.41307077942166
0 MIDAS 5 DEB
1   273U 62010C   18289.12653389 -.00000059  00000-0 -12732-1 0  9998
2   273  86.6670 346.6462 0321933  82.5347 281.2010  9.43785910947367
0 MIDAS 5 DEB
1   274U 62010D   18288.22567583 +.00000048 +00000-0 +90945-2 0  9998
2   274 086.6796 019.1642 0326284 351.8673 007.7022 09.39318727937802
0 THOR ABLESTAR DEB
1   299U 61015CQ  18288.67962369 +.00000027 +00000-0 +99597-4 0  9990
2   299 067.1700 042.9468 0198349 215.1087 143.6779 13.67797626845822
0 THOR ABLESTAR DEB
1   299U 61015CQ  18289.70332601  .00000018  00000-0  90135-4 0  9994
2   299  67.1701  40.5774 0198305 214.3687 144.4425 13.67797785846493
0 TIROS 5
1   309U 62025A   18289.78293626 -.00000133  00000-0  13651-4 0  9996
2   309  58.0926  29.3306 0196066  22.5126 338.4358 14.56764140973486
0 TIROS 5
1   309U 62025A   18288.82214320 -.00000137 +00000-0 +12944-4 0  9992
2   309 058.0925 032.8407 0195946 021.2140 339.6871 14.56763956973346
0 DELTA 1 DEB (YO)
1   312U 62025C   18288.87903637 +.00000012 +00000-0 +38575-4 0  9996
2   312 058.2469 130.5483 0210530 184.8453 175.0542 14.54298856950819
0 THOR ABLESTAR DEB
1   318U 61015CU  18288.77069681 +.00000468 +00000-0 +67219-4 0  9993
2   318 066.5362 061.1001 0073468 335.5073 024.2566 14.85078233995497
0 THOR ABLESTAR DEB
1   318U 61015CU  18289.71353913  .00000440  00000-0  64166-4 0  9990
2   318  66.5363  58.3887 0073569 334.8299  24.9246 14.85079205 16498
0 THOR ABLESTAR DEB
1   320U 61015CW  18289.83816075 -.00000001  00000-0  31406-4 0  9994
2   320  66.9052  86.3334 0136978   2.5777 357.5996 14.27098820968563
0 THOR ABLESTAR DEB
1   320U 61015CW  18288.85700744 -.00000008 +00000-0 +28883-4 0  9992
2   320 066.9050 088.8672 0136887 003.3261 356.8714 14.27098684968433
0 THOR ABLESTAR DEB
1   323U 61015CZ  18288.57134944 +.00000134 +00000-0 +11201-3 0  9991
2   323 066.8410 358.9235 0078460 335.5246 024.2127 14.13038299932364
0 THOR ABLESTAR DEB
1   323U 61015CZ  18289.49148368  .00000135  00000-0  11209-3 0  9997
2   323  66.8410 356.5960 0078539 334.8729  24.8547 14.13038602932986
0 THOR ABLESTAR DEB
1   324U 61015DA  18288.32865103 -.00000023 +00000-0 +31603-4 0  9990
2   324 066.8660 248.5317 0075451 286.5103 072.7706 14.10098861927735
0 THOR ABLESTAR DEB
1   324U 61015DA  18289.25070541  .00000031  00000-0  61324-4 0  9998
2   324  66.8660 246.2130 0075458 285.9033  73.3750 14.10099046928299
0 THOR ABLESTAR DEB
1   325U 61015DB  18288.67301692 -.00000055 +00000-0 +12788-4 0  9995
2   325 066.9173 044.8690 0060149 342.2687 017.6306 14.17992754935512
0 THOR ABLESTAR DEB
1   327U 61015DD  18288.83766054 -.00000007 +00000-0 +55696-4 0  9994
2   327 066.5420 091.3990 0110357 147.4791 213.3147 13.89625128897389
0 THOR ABLESTAR DEB
1   330U 61015DG  18288.66976818 +.00000142 +00000-0 +14198-3 0  9990
2   330 066.9826 039.9837 0046498 055.3123 305.2331 14.02086664903538
0 THOR ABLESTAR DEB
1   330U 61015DG  18289.66842681  .00000157  00000-0  15191-3 0  9991
2   330  66.9828  37.5177 0046506  54.4352 306.1056 14.02087253904175
0 THOR ABLESTAR DEB
1   333U 61015DK  18288.89817083 +.00000456 +00000-0 +12059-3 0  9998
2   333 066.7140 324.1768 0062677 270.5679 088.8251 14.57047957978757
0 THOR ABLESTAR DEB
1   333U 61015DK  18289.44730559  .00000463  00000-0  12214-3 0  9993
2   333  66.7139 322.6771 0062684 270.2032  89.1897 14.57048632979381
0 THOR ABLESTAR DEB
1   334U 61015DL  18289.04802198 -.00000061  00000-0  11452-4 0  9998
2   334  66.9232 155.6939 0083231 323.1921  36.3462 13.91235411906803
0 THOR ABLESTAR DEB
1   334U 61015DL  18288.90424438 -.00000064 +00000-0 +94325-5 0  9993
2   334 066.9232 156.0434 0083220 323.2878 036.2518 13.91235384906336
0 THOR ABLESTAR DEB
1   335U 61015DM  18288.77772801 +.00000033 +00000-0 +56670-4 0  9994
2   335 066.8415 083.3466 0034722 084.2716 276.2334 14.17042991929879
0 THOR ABLESTAR DEB
1   335U 61015DM  18289.83642370  .00000082  00000-0  80709-4 0  9993
2   335  66.8416  80.6513 0034724  83.3612 277.1431 14.17043286930430
0 THOR ABLESTAR DEB
1   336U 61015DN  18288.91869378 -.00000004 +00000-0 +75822-4 0  9996
2   336 067.0300 240.5863 0080442 335.6031 087.8968 13.68375624855859
0 THOR ABLESTAR DEB
1   337U 61015DP  18288.69353426 -.00000082 +00000-0 -10922-4 0  9991
2   337 067.0102 046.7040 0099554 116.3177 244.8162 13.74318882859611
0 THOR ABLESTAR DEB
1   337U 61015DP  18289.71237010 -.00000101  00000-0 -29571-4 0  9997
2   337  67.0103  44.3052 0099492 115.5502 245.5896 13.74318750860150
0 TELSTAR 1
1   340U 62029A   18288.13114749 -.00000031 +00000-0 -14182-4 0  9999
2   340 044.8004 133.8757 2423737 331.3674 222.9125 09.12864757876528
0 DELTA 1 R/B
1   341U 62029B   18288.74375406 -.00000184 +00000-0 -10378-2 0  9996
2   341 044.7961 042.8258 2421073 075.0643 022.5572 09.14236247879021
0 THOR ABLESTAR DEB
1   350U 61015DQ  18288.89499160 +.00000051 +00000-0 +56877-4 0  9997
2   350 066.9132 192.8913 0122115 111.8846 249.5286 14.20659969964928
0 THOR ABLESTAR DEB
1   353U 61015DT  18288.73924874 +.00002041 +00000-0 +22249-3 0  9994
2   353 066.5043 045.9110 0013495 057.8305 302.4129 14.90320602983511
0 THOR ABLESTAR DEB
1   353U 61015DT  18289.54455616  .00001990  00000-0  21725-3 0  9997
2   353  66.5043  43.5730 0013515  56.8164 303.4257 14.90324128983642
0 THOR ABLESTAR DEB
1   354U 61015DU  18288.37398855 +.00000018 +00000-0 +12572-3 0  9999
2   354 067.0642 280.3056 0162728 105.8962 003.6843 13.48150596100074
0 THOR ABLESTAR DEB
1   355U 61015DV  18288.93485213 +.00000015 +00000-0 +13578-3 0  9991
2   355 067.2249 338.8286 0246368 026.2096 026.8953 13.31922619775837
0 THOR ABLESTAR DEB
1   357U 61015DX  18288.68928865 +.00000288 +00000-0 +23372-3 0  9995
2   357 066.8116 053.0535 0007357 021.0962 339.0426 14.03633247902166
0 THOR ABLESTAR DEB
1   357U 61015DX  18289.18806472  .00000282  00000-0  22992-3 0  9991
2   357  66.8117  51.8101 0007386  20.4165 339.7214 14.03633694902632
0 FTV 3502
1   369U 62039A   18288.89052825 +.00000074 +00000-0 +16044-4 0  9994
2   369 098.5279 142.0720 0093002 158.8013 201.7093 14.83560404999550
0 FTV 3502
1   369U 62039A   18289.56499455  .00000091  00000-0  17882-4 0  9993
2   369  98.5277 142.7921 0093034 156.6550 203.8928 14.83560598   103
0 TIROS 6
1   397U 62047A   18288.95057490 -.00000067 +00000-0 +15739-4 0  9997
2   397 058.3058 187.1392 0002627 214.9330 145.1543 14.88324185994751
0 DELTA 1 DEB (YO)
1   399U 62047C   18288.91839251 +.00103988 +00000-0 +41328-3 0  9995
2   399 058.3929 207.0735 0010151 070.4992 001.0987 15.85957054030649
0 DELTA 1 DEB (YO)
1   399U 62047C   18289.18360491  .00112302  00000-0  44445-3 0  9993
2   399  58.3928 205.9022 0010077  71.8430  74.4139 15.86015837 31215
0 DELTA 1 DEB (YO)
1   399U 62047C   18289.61046054  .00090209  00000-0  35712-3 0  9995
2   399  58.3929 204.0191 0010084  71.1498 353.0319 15.86091195 31282
0 THOR ABLESTAR DEB
1   402U 61015EB  18289.77799697  .00000654  00000-0  23273-3 0  9993
2   402  66.6627 229.9905 0044752 220.5782 139.1983 14.39956704936117
0 THOR ABLESTAR DEB
1   402U 61015EB  18288.94452020 +.00000657 +00000-0 +23360-3 0  9997
2   402 066.6626 232.2094 0044856 221.1471 138.6247 14.39955450935550
0 THOR ABLESTAR DEB
1   403U 61015EC  18288.95838667 -.00000026 +00000-0 +45702-4 0  9990
2   403 066.8406 160.6686 0025740 310.4084 148.5698 13.80723852884404
0 THOR ABLESTAR DEB
1   404U 61015ED  18288.93565505 -.00000254 +00000-0 -35667-3 0  9999
2   404 066.4708 205.9668 0567880 230.1174 124.8597 12.90263176681670
0 THOR ABLESTAR DEB
1   405U 61015EE  18288.94697762 -.00000211 +00000-0 -16611-3 0  9993
2   405 066.8918 217.2638 0090911 300.5073 124.4631 13.65730066849577
0 THOR ABLESTAR DEB
1   406U 61015EF  18288.86903177 +.00000105 +00000-0 +20224-3 0  9990
2   406 066.7785 097.8184 0116658 107.6348 006.7878 13.66689526838157
0 THOR ABLESTAR DEB
1   406U 61015EF  18289.51791472  .00000091  00000-0  18653-3 0  9993
2   406  66.7786  96.2958 0116638 107.1823 319.3646 13.66689638838645
0 THOR ABLESTAR DEB
1   407U 61015EG  18288.68759831 +.00000800 +00000-0 +24204-3 0  9991
2   407 066.3263 348.2698 0077957 345.1487 155.9977 14.46122319923141
0 THOR ABLESTAR DEB
1   407U 61015EG  18289.22595083  .00000807  00000-0  24388-3 0  9999
2   407  66.3263 346.8023 0078049 344.7627  78.7129 14.46123372923647
0 THOR ABLESTAR DEB
1   408U 61015EH  18288.91633883 +.00000007 +00000-0 +83213-4 0  9991
2   408 066.7848 299.4923 0074993 223.3382 210.4703 13.74845373920403
0 THOR ABLESTAR DEB
1   408U 61015EH  18289.78514028  .00000016  00000-0  92497-4 0  9990
2   408  66.7848 297.4260 0074935 222.7944 190.5097 13.74845544921021
0 THOR ABLESTAR DEB
1   410U 61015EK  18288.97663247 -.00000022 +00000-0 +54299-4 0  9997
2   410 066.6923 260.9707 0009227 034.7512 028.3924 13.76082210874593
0 THOR ABLESTAR DEB
1   410U 61015EK  18289.19947775 -.00000019  00000-0  57069-4 0  9997
2   410  66.6923 260.4377 0009250  34.5345  52.4141 13.76082222875121
0 THOR ABLESTAR DEB
1   414U 61015EP  18289.54759722 -.00000048  00000-0  29164-4 0  9990
2   414  66.4462  46.4622 0044000  23.3555  56.4662 13.77035427876924
